#aV2007  5  5  0  0   .00000000      96 DD+AD WGS84 FIT  NGA
## 1425 518400.00000000   900.00000000 54225  .0000000000000
+   30     1  2  3  4  5  6  7  8  9 10 11 12 13 14 16 17 18
+         19 20 21 22 23 24 25 26 27 28 29 30 31  0  0  0  0
+          0  0  0  0  0  0  0  0  0  0  0  0  0  0  0  0  0
+          0  0  0  0  0  0  0  0  0  0  0  0  0  0  0  0  0
+          0  0  0  0  0  0  0  0  0  0  0  0  0  0  0  0  0
++         0  0  0  0  0  0  0  0  0  0  0  0  0  0  0  0  0
++         0  0  0  0  0  0  0  0  0  0  0  0  0  0  0  0  0
++         0  0  0  0  0  0  0  0  0  0  0  0  0  0  0  0  0
++         0  0  0  0  0  0  0  0  0  0  0  0  0  0  0  0  0
++         0  0  0  0  0  0  0  0  0  0  0  0  0  0  0  0  0
%c cc cc ccc ccc cccc cccc cccc cccc ccccc ccccc ccccc ccccc
%c cc cc ccc ccc cccc cccc cccc cccc ccccc ccccc ccccc ccccc
%f  0.0000000  0.000000000  0.00000000000  0.000000000000000
%f  0.0000000  0.000000000  0.00000000000  0.000000000000000
%i    0    0    0    0      0      0      0      0         0
%i    0    0    0    0      0      0      0      0         0
/*      NGA, ST. LOUIS,MO.                                  
/*   EPHEMERIS COMPUTED FROM  3 DAYS OF DATA                
/* CCCCCCCCCCCCCCCCCCCCCCCCCCCCCCCCCCCCCCCCCCCCCCCCCCCCCCCCC
/* CCCCCCCCCCCCCCCCCCCCCCCCCCCCCCCCCCCCCCCCCCCCCCCCCCCCCCCCC
*  2007  5  5  0 45   .00000000                                                 
P  1  11981.131077 -20795.513908  11510.906720    125.086334                    
V  1  11723.908587  -8311.952147 -27770.045629       .028328                    
P  2  -2991.654417  15145.558164  21400.443809    104.047746                    
V  2 -26768.961736  -7259.709526   1105.038654       .029451                    
P  3   6418.714523 -22432.054124 -12584.757925     52.572283                    
V  3  12742.885331 -10030.831966  25120.751467       .057359                    
P  4 -16631.349042   9142.677344  18655.560570     10.925528                    
V  4 -22385.983578  -8066.122277 -15589.573524       .001144                    
P  5  15141.910771  18843.960154  10944.688491     15.808393                    
V  5   1955.168972  14405.327770 -26779.699882      -.123304                    
P  6  17973.380897   2158.856770  19641.275866    169.960074                    
V  6 -15886.137259  18857.498466  12540.143332       .152288                    
P  7  19822.720882  -2289.897468  17908.547642    317.428130                    
V  7 -13375.593890  17714.113328  17339.022861      -.164589                    
P  8 -23819.226598    905.652601 -12282.628053   -106.099885                    
V  8 -13988.565116  -6205.088915  26494.473208      -.013925                    
P  9  16274.962901  14894.205015 -15543.323941     68.917216                    
V  9 -18449.661222  -2743.695138 -22603.621913       .016752                    
P 10     97.453761  25071.489735   8139.665489    101.405707                    
V 10  -4983.835273  -9698.411672  29825.820117       .005736                    
P 11 -18823.306797 -13063.334840 -13774.160217     15.089920                    
V 11  17671.070560  -1614.193674 -22501.011344       .010164                    
P 12  12225.207658  21856.780452   9041.657333    -44.449220                    
V 12    441.163132  11573.784889 -28869.977567      -.004107                    
P 13 -18637.542969    500.604080  18794.764012    169.358954                    
V 13  17056.621926 -16940.359319  17312.958843       .035689                    
P 14  20668.108860 -16189.857905  -3654.465599     18.718870                    
V 14  -2087.358100   4693.999791 -31963.230948       .016909                    
P 16   4228.836401 -22425.499003  13549.929744    145.226375                    
V 16   6229.890491  16098.569389  25001.333178       .030857                    
P 17 -21245.498895  14546.495934  -6221.139246     69.374489                    
V 17   3722.862158  -7573.278960 -30486.480224      -.013043                    
P 18  15949.220226   3847.999803 -20811.750196   -250.530379                    
V 18   4953.555719  26243.510467   8262.825409       .007550                    
P 19   -405.653134 -17820.278970 -19555.520736     31.011057                    
V 19  19865.730905 -15387.111263  13648.830136       .035060                    
P 20 -12671.516617 -21381.211718   9314.212764    -24.292560                    
V 20   -463.208781 -12285.549410 -28470.414074      -.003619                    
P 21  26056.605243   4758.775560  -4405.756927     76.393215                    
V 21   4530.974040   4480.908475  30261.327893       .005616                    
P 22  13111.619792  -9784.793750 -20766.978821    180.381456                    
V 22   6277.141194  26025.583032  -8266.660395       .018094                    
P 23 -11838.448684  -9293.761546  21809.429356    164.224481                    
V 23  19816.490455 -19572.092111   2212.871184       .024983                    
P 24  21869.190966  12875.664360   7510.735703     97.818203                    
V 24  -9805.594516   -135.902274  29884.008996       .027967                    
P 25 -19029.229807 -12988.586491  13488.979178    228.123598                    
V 25  16677.663960    675.119087  25064.210208       .283386                    
P 26  -1632.275297  18485.829987 -19200.142370   -176.680970                    
V 26 -18163.903896  15104.542498  17020.605446      -.204301                    
P 27 -26233.761557  -4000.766807  -2204.991474    108.831890                    
V 27  -2952.024082  -3241.491342  31507.106735       .021270                    
P 28 -14207.319007   5156.150637 -21488.906291      1.827642                    
V 28  -6769.641581 -27284.139339  -2377.845780      -.007252                    
P 29  -5973.601389  20287.231925 -15621.822934      2.406131                    
V 29 -15640.168977  13065.032764  23004.436364       .004401                    
P 30  16207.304864  12854.107603  16415.906951     32.897776                    
V 30   4087.219806  21137.785016 -20097.828051       .010291                    
P 31  15049.851456 -10083.998993  19647.424486     19.934654                    
V 31  23327.408040   7544.217143 -14070.786937      -.001549                    
EOF
